NORAD_CAT_ID,OBJECT_NAME,OBJECT_TYPE,EPOCH,MEAN_MOTION,ECCENTRICITY,INCLINATION,RA_OF_ASC_NODE,ARG_OF_PERICENTER,MEAN_ANOMALY,BSTAR,MEAN_MOTION_DOT,MEAN_MOTION_DDOT,TLE_LINE0,TLE_LINE1,TLE_LINE2,SEMIMAJOR_AXIS,PERIOD,APOGEE,PERIGEE,DECAYED
51726.0,STARLINK-3527,PAYLOAD,2024-04-02 19:51:24,15.08843625,0.0001398,53.2182,247.8574,97.0357,263.0795,3.0565e-05,1.99e-06,0.0,0 STARLINK-3527,1 51726U 22016N   24093.82736586  .00000199  00000-0  30565-4 0  9997,2 51726  53.2182 247.8574 0001398  97.0357 263.0795 15.08843625118074,6917.869,95.437,540.701,538.767,0.0
51726.0,STARLINK-3527,PAYLOAD,2024-04-03 10:09:52,15.08828009,0.0001063,53.2187,245.1809,107.0714,253.0394,0.00020662,3.001e-05,0.0,0 STARLINK-3527,1 51726U 22016N   24094.42352869  .00003001  00000-0  20662-3 0  9993,2 51726  53.2187 245.1809 0001063 107.0714 253.0394 15.08828009118162,6917.917,95.438,540.517,539.047,0.0
51726.0,STARLINK-3527,PAYLOAD,2024-04-03 13:20:39,15.08832284,0.0001249,53.2183,244.5865,100.9109,259.2024,0.00013808,1.91e-05,0.0,0 STARLINK-3527,1 51726U 22016N   24094.55600900  .00001910  00000-0  13808-3 0  9990,2 51726  53.2183 244.5865 0001249 100.9109 259.2024 15.08832284117111,6917.904,95.438,540.633,538.905,0.0
51726.0,STARLINK-3527,PAYLOAD,2024-04-03 16:31:25,15.08829155,0.0001172,53.2182,243.9927,98.3917,261.7208,0.00014094,1.955e-05,0.0,0 STARLINK-3527,1 51726U 22016N   24094.68849169  .00001955  00000-0  14094-3 0  9993,2 51726  53.2182 243.9927 0001172  98.3917 261.7208 15.08829155117131,6917.914,95.438,540.589,538.968,0.0
51726.0,STARLINK-3527,PAYLOAD,2024-04-04 13:11:30,15.08788301,0.0001176,53.217,240.1263,71.6424,288.4696,-0.00036262,-6.046e-05,0.0,0 STARLINK-3527,1 51726U 22016N   24095.54965479 -.00006046  00000-0 -36262-3 0  9991,2 51726  53.2170 240.1263 0001176  71.6424 288.4696 15.08788301118338,6918.038,95.441,540.717,539.09,0.0
51726.0,STARLINK-3527,PAYLOAD,2024-04-04 14:46:53,15.08789561,0.0001432,53.2168,239.8287,94.9293,265.1863,-0.00035022,-5.85e-05,0.0,0 STARLINK-3527,1 51726U 22016N   24095.61589459 -.00005850  00000-0 -35022-3 0  9994,2 51726  53.2168 239.8287 0001432  94.9293 265.1863 15.08789561117272,6918.035,95.441,540.89,538.909,0.0
51726.0,STARLINK-3527,PAYLOAD,2024-04-04 16:22:13,15.0883554,0.0001285,53.2171,239.5318,91.7189,268.3951,1.0707e-05,-1.17e-06,0.0,0 STARLINK-3527,1 51726U 22016N   24095.68209901 -.00000117  00000-0  10707-4 0  9996,2 51726  53.2171 239.5318 0001285  91.7189 268.3951 15.08835540118355,6917.894,95.438,540.648,538.87,0.0
51726.0,STARLINK-3527,PAYLOAD,2024-04-05 13:02:13,15.08842738,0.0001288,53.2172,235.6679,92.8264,267.2876,0.00013437,1.851e-05,0.0,0 STARLINK-3527,1 51726U 22016N   24096.54321080  .00001851  00000-0  13437-3 0  9992,2 51726  53.2172 235.6679 0001288  92.8264 267.2876 15.08842738118487,6917.872,95.437,540.628,538.846,0.0
51726.0,STARLINK-3527,PAYLOAD,2024-04-05 14:37:36,15.0884426,0.0001315,53.2174,235.3708,93.1166,266.9977,0.00014597,2.036e-05,0.0,0 STARLINK-3527,1 51726U 22016N   24096.60944948  .00002036  00000-0  14597-3 0  9997,2 51726  53.2174 235.3708 0001315  93.1166 266.9977 15.08844260117428,6917.867,95.437,540.642,538.823,0.0
51726.0,STARLINK-3527,PAYLOAD,2024-04-05 16:12:59,15.08846568,0.0001294,53.2171,235.0757,93.0845,267.0295,0.00016991,2.418e-05,0.0,0 STARLINK-3527,1 51726U 22016N   24096.67568747  .00002418  00000-0  16991-3 0  9997,2 51726  53.2171 235.0757 0001294  93.0845 267.0295 15.08846568117434,6917.86,95.437,540.62,538.83,0.0
51726.0,STARLINK-3527,PAYLOAD,2024-04-06 01:45:17,15.08857367,0.0001353,53.2172,233.2905,93.0423,267.0724,0.00024193,3.566e-05,0.0,0 STARLINK-3527,1 51726U 22016N   24097.07311561  .00003566  00000-0  24193-3 0  9990,2 51726  53.2172 233.2905 0001353  93.0423 267.0724 15.08857367118569,6917.827,95.436,540.628,538.756,0.0
51726.0,STARLINK-3527,PAYLOAD,2024-04-06 09:42:15,15.08800074,0.0001659,53.2172,231.802,107.2887,252.8286,0.00028266,4.209e-05,0.0,0 STARLINK-3527,1 51726U 22016N   24097.40434739  .00004209  00000-0  28266-3 0  9990,2 51726  53.2172 231.8020 0001659 107.2887 252.8286 15.08800074118616,6918.002,95.44,541.015,538.72,0.0
51726.0,STARLINK-3527,PAYLOAD,2024-04-06 17:39:11,15.0880717,0.0001458,53.2179,230.3171,92.6021,267.5138,0.00031791,4.771e-05,0.0,0 STARLINK-3527,1 51726U 22016N   24097.73554878  .00004771  00000-0  31791-3 0  9994,2 51726  53.2179 230.3171 0001458  92.6021 267.5138 15.08807170118666,6917.981,95.44,540.854,538.837,0.0
51726.0,STARLINK-3527,PAYLOAD,2024-04-07 07:57:38,15.08846225,0.0001505,53.2168,227.64,100.6058,259.5104,-6.1664e-05,-1.269e-05,0.0,0 STARLINK-3527,1 51726U 22016N   24098.33169734 -.00001269  00000-0 -61664-4 0  9998,2 51726  53.2168 227.6400 0001505 100.6058 259.5104 15.08846225118759,6917.861,95.437,540.767,538.685,0.0
51726.0,STARLINK-3527,PAYLOAD,2024-04-07 17:29:57,15.08840306,0.0001438,53.2173,225.8572,94.1578,265.9578,-9.3566e-05,-1.777e-05,0.0,0 STARLINK-3527,1 51726U 22016N   24098.72914155 -.00001777  00000-0 -93566-4 0  9996,2 51726  53.2173 225.8572 0001438  94.1578 265.9578 15.08840306118811,6917.879,95.438,540.739,538.75,0.0
51726.0,STARLINK-3527,PAYLOAD,2024-04-08 01:26:52,15.08855448,0.0001775,53.2176,224.3676,77.8711,282.248,-5.0981e-05,-1.1e-05,0.0,0 STARLINK-3527,1 51726U 22016N   24099.06033005 -.00001100  00000-0 -50981-4 0  9994,2 51726  53.2176 224.3676 0001775  77.8711 282.2480 15.08855448118866,6917.833,95.437,540.926,538.47,0.0
51726.0,STARLINK-3527,PAYLOAD,2024-04-08 07:48:25,15.08840148,0.0002108,53.2183,223.1806,87.7558,272.3676,0.0001649,2.337e-05,0.0,0 STARLINK-3527,1 51726U 22016N   24099.32529342  .00002337  00000-0  16490-3 0  9994,2 51726  53.2183 223.1806 0002108  87.7558 272.3676 15.08840148118909,6917.88,95.438,541.203,538.287,0.0
51726.0,STARLINK-3527,PAYLOAD,2024-04-09 14:00:45,15.08839919,0.0002254,53.2198,217.5311,81.9959,278.1289,7.9927e-05,9.84e-06,0.0,0 STARLINK-3527,1 51726U 22016N   24100.58385696  .00000984  00000-0  79927-4 0  9998,2 51726  53.2198 217.5311 0002254  81.9959 278.1289 15.08839919118027,6917.881,95.438,541.305,538.186,0.0
51726.0,STARLINK-3527,PAYLOAD,2024-04-09 17:11:32,15.08813244,0.0001851,53.2171,216.9376,70.5967,289.5226,0.0002862,4.266e-05,0.0,0 STARLINK-3527,1 51726U 22016N   24100.71634845  .00004266  00000-0  28620-3 0  9996,2 51726  53.2171 216.9376 0001851  70.5967 289.5226 15.08813244119118,6917.962,95.439,541.108,538.547,0.0
51726.0,STARLINK-3527,PAYLOAD,2024-04-10 13:51:32,15.08841997,0.0001716,53.2163,213.0689,83.4582,276.6605,3.6467e-05,2.92e-06,0.0,0 STARLINK-3527,1 51726U 22016N   24101.57745463  .00000292  00000-0  36467-4 0  9994,2 51726  53.2163 213.0689 0001716  83.4582 276.6605 15.08841997119248,6917.874,95.437,540.926,538.552,0.0
51726.0,STARLINK-3527,PAYLOAD,2024-04-10 17:02:17,15.08890171,0.000177,53.2175,212.4747,96.9569,263.1624,-0.00065816,-0.00010762,0.0,0 STARLINK-3527,1 51726U 22016N   24101.70992128 -.00010762  00000-0 -65816-3 0  9995,2 51726  53.2175 212.4747 0001770  96.9569 263.1624 15.08890171119265,6917.727,95.434,540.816,538.368,0.0
51726.0,STARLINK-3527,PAYLOAD,2024-04-11 00:59:13,15.08820946,0.0001675,53.2201,210.9876,95.4725,264.6459,0.00035768,5.406e-05,0.0,0 STARLINK-3527,1 51726U 22016N   24102.04113401  .00005406  00000-0  35768-3 0  9992,2 51726  53.2201 210.9876 0001675  95.4725 264.6459 15.08820946119314,6917.939,95.439,540.962,538.645,0.0
51726.0,STARLINK-3527,PAYLOAD,2024-04-11 13:42:19,15.08838148,0.0001523,53.2184,208.6085,94.1554,265.9612,8.4133e-05,1.051e-05,0.0,0 STARLINK-3527,1 51726U 22016N   24102.57105505  .00001051  00000-0  84133-4 0  9999,2 51726  53.2184 208.6085 0001523  94.1554 265.9612 15.08838148118326,6917.886,95.438,540.805,538.697,0.0
51726.0,STARLINK-3527,PAYLOAD,2024-04-12 13:33:06,15.08838661,0.0001428,53.2172,204.1476,97.7296,262.3858,3.3794e-05,2.5e-06,0.0,0 STARLINK-3527,1 51726U 22016N   24103.56465578  .00000250  00000-0  33794-4 0  9995,2 51726  53.2172 204.1476 0001428  97.7296 262.3858 15.08838661118473,6917.884,95.438,540.737,538.762,0.0
51726.0,STARLINK-3527,PAYLOAD,2024-04-12 15:08:29,15.08840299,0.0001421,53.2172,203.8496,98.2338,261.8816,4.456e-05,4.21e-06,0.0,0 STARLINK-3527,1 51726U 22016N   24103.63089415  .00000421  00000-0  44560-4 0  9998,2 51726  53.2172 203.8496 0001421  98.2338 261.8816 15.08840299119555,6917.879,95.438,540.728,538.761,0.0
51726.0,STARLINK-3527,PAYLOAD,2024-04-13 11:48:30,15.08828942,0.0001385,53.2171,199.9834,102.1804,257.9343,-2.485e-05,-6.83e-06,0.0,0 STARLINK-3527,1 51726U 22016N   24104.49202511 -.00000683  00000-0 -24850-4 0  9999,2 51726  53.2171 199.9834 0001385 102.1804 257.9343 15.08828942119683,6917.914,95.438,540.737,538.821,0.0
51726.0,STARLINK-3527,PAYLOAD,2024-04-14 11:39:18,15.08781689,0.0001636,53.2173,195.5219,99.3885,260.7292,0.00085518,0.00013327,0.0,0 STARLINK-3527,1 51726U 22016N   24105.48563248  .00013327  00000-0  85518-3 0  9990,2 51726  53.2173 195.5219 0001636  99.3885 260.7292 15.08781689119837,6918.059,95.441,541.055,538.792,0.0
51726.0,STARLINK-3527,PAYLOAD,2024-04-15 13:05:27,15.08842874,0.0001371,53.2169,190.7625,88.015,272.0999,0.00014155,1.966e-05,0.0,0 STARLINK-3527,1 51726U 22016N   24106.54545691  .00001966  00000-0  14155-3 0  9995,2 51726  53.2169 190.7625 0001371  88.0150 272.0999 15.08842874119986,6917.872,95.437,540.685,538.788,0.0
51726.0,STARLINK-3527,PAYLOAD,2024-04-15 14:40:50,15.08844364,0.0001402,53.2171,190.4651,91.4226,268.6927,0.00015336,2.154e-05,0.0,0 STARLINK-3527,1 51726U 22016N   24106.61169568  .00002154  00000-0  15336-3 0  9990,2 51726  53.2171 190.4651 0001402  91.4226 268.6927 15.08844364118934,6917.867,95.437,540.702,538.762,0.0
51726.0,STARLINK-3527,PAYLOAD,2024-04-15 22:37:45,15.08857748,0.0001548,53.2181,188.9829,77.4891,282.6275,0.00021812,3.187e-05,0.0,0 STARLINK-3527,1 51726U 22016N   24106.94288473  .00003187  00000-0  21812-3 0  9996,2 51726  53.2181 188.9829 0001548  77.4891 282.6275 15.08857748120044,6917.826,95.436,540.762,538.62,0.0
